IRIDIUM 36              
1 24967U 97056C   24183.88731193  .00000912  00000+0  30218-3 0  9991
2 24967  86.3974 320.1204 0002299  91.0082 269.1378 14.36869240401904
IRIDIUM 39              
1 25042U 97069D   24184.21177316  .00001169  00000+0  30864-3 0  9991
2 25042  86.3922   1.1192 0019606  39.9929 320.2714 14.48034400398559
IRIDIUM 38              
1 25043U 97069E   24184.09904855  .00000761  00000+0  24874-3 0  9995
2 25043  86.3959  20.3960 0003025 123.8202 236.3284 14.37317104395910
IRIDIUM 42              
1 25077U 97077A   24183.82105999  .00000642  00000+0  21602-3 0  9997
2 25077  86.3962  26.2506 0002163 105.1281 255.0154 14.35610976390914
IRIDIUM 44              
1 25078U 97077B   24184.50720658  .00000804  00000+0  25194-3 0  9999
2 25078  86.3959   8.8300 0003996  92.6856 267.4800 14.39456715393418
IRIDIUM 45              
1 25104U 97082A   24183.59284827  .00014298  00000+0  78671-3 0  9996
2 25104  86.3745 215.4855 0158429 185.9355 174.0010 15.03724457399026
IRIDIUM 24              
1 25105U 97082B   24183.88222059  .00000781  00000+0  23561-3 0  9998
2 25105  86.3912 228.6512 0012763 146.0059 214.1961 14.41242263392742
IRIDIUM 51              
1 25262U 98018A   24184.53730088  .00019483  00000+0  87318-3 0  9990
2 25262  86.3945 224.8154 0145594 125.9018 235.5838 15.11987948393950
